ONEWEB-0027             
1 45432U 20020J   23317.15376090  .00000039  00000+0  67506-4 0  9998
2 45432  87.9237 194.1033 0001622  86.2667 273.8650 13.17648273181646
ONEWEB-0064             
1 45433U 20020K   23316.96084765 -.00000392  00000+0 -11418-2 0  9995
2 45433  87.9000 209.2708 0001443  84.5496 275.5796 13.11416039178535
ONEWEB-0018             
1 45434U 20020L   23317.14592454  .00000364  00000+0  99120-3 0  9990
2 45434  87.9008 209.2265 0001626  68.5878 291.5423 13.11423235178510
ONEWEB-0083             
1 45435U 20020M   23317.13456139 -.00000059  00000+0 -20120-3 0  9996
2 45435  87.9000 209.2113 0001677  76.8153 283.3162 13.11420861178554
ONEWEB-0095             
1 45436U 20020N   23317.12657302 -.00000359  00000+0 -10481-2 0  9992
2 45436  87.9006 209.2498 0001969  80.7295 279.4055 13.11418767178551
ONEWEB-0092             
1 45437U 20020P   23317.09397646  .00000315  00000+0  85174-3 0  9993
2 45437  87.9001 209.2355 0001963  80.0861 280.0488 13.11417973178652
ONEWEB-0085             
1 45438U 20020Q   23316.74656813 -.00000471  00000+0 -13651-2 0  9994
2 45438  87.9000 209.3106 0001449  71.0749 289.0536 13.11418788178491
ONEWEB-0096             
1 45439U 20020R   23316.75468520 -.00000012  00000+0 -69285-4 0  9999
2 45439  87.8997 209.2827 0001594  64.8963 295.2330 13.11415438178483
